TIANMU-1 21             
1 58662U 23208C   26192.16740022  .00005931  00000+0  17421-3 0  9999
2 58662  97.4519 312.0436 0006302 219.6470 140.4313 15.35503922141246
TIANMU-1 22             
1 58663U 23208D   26192.18665579  .00004632  00000+0  15540-3 0  9992
2 58663  97.4514 308.5322 0002444 238.5288 121.5714 15.31390829141001
TIANMU-1 15             
1 58700U 24004A   26192.21520207  .00003183  00000+0  12335-3 0  9990
2 58700  97.4669  18.4061 0005796 245.6098 114.4536 15.26887831139448
TIANMU-1 16             
1 58701U 24004B   26192.20493731  .00003311  00000+0  12782-3 0  9990
2 58701  97.4617  17.6147 0004310 264.6240  95.4507 15.26991065139440
TIANMU-1 17             
1 58702U 24004C   26192.19041442  .00003325  00000+0  12835-3 0  9991
2 58702  97.4643  18.0939 0003824 271.8789  88.2012 15.26988605139437
TIANMU-1 18             
1 58703U 24004D   26192.16628008  .00003146  00000+0  12189-3 0  9991
2 58703  97.4662  18.3319 0003498 244.0475 116.0404 15.26904171139436
INSAT-3DS               
1 58990U 24033A   26191.44052875 -.00000146  00000+0  00000+0 0  9997
2 58990   0.1046 265.7903 0001077 223.3866  39.8494  1.00271597 47304
METEOR-M2 4             
1 59051U 24039A   26192.17004363 -.00000017  00000+0  12162-4 0  9996
2 59051  98.7023 151.1682 0008231  98.7930 261.4180 14.22431890122679
GOES 19                 
1 60133U 24119A   26192.21171147 -.00000241  00000+0  00000+0 0  9990
2 60133   0.0154 267.1337 0000559 296.4217  86.5835  1.00270137  7209
MTG-S1                  
1 64723U 25143A   26192.19072829  .00000000  00000+0  00000+0 0  9993
2 64723   0.5869 344.1126 0003471 262.0795 111.1412  1.00272782  3653
METOP-SGA1              
1 65159U 25172A   26192.09992515 -.00000003  00000+0  18982-4 0  9998
2 65159  98.6632 251.3220 0007282 344.6870  15.4085 14.19818728 47180
FENGYUN 3H              
1 65815U 25219A   26190.59021699  .00000022  00000+0  30852-4 0  9998
2 65815  98.6772 130.9242 0001269  63.2177 296.9130 14.19924262 40566
