OBJECT_NAME,OBJECT_ID,EPOCH,MEAN_MOTION,ECCENTRICITY,INCLINATION,RA_OF_ASC_NODE,ARG_OF_PERICENTER,MEAN_ANOMALY,EPHEMERIS_TYPE,CLASSIFICATION_TYPE,NORAD_CAT_ID,ELEMENT_SET_NO,REV_AT_EPOCH,BSTAR,MEAN_MOTION_DOT,MEAN_MOTION_DDOT
TIANMU-1 21,2023-208C,2026-07-11T04:01:03.379008,15.35503922,.0006302,97.4519,312.0436,219.6470,140.4313,0,U,58662,999,14124,.17421E-3,.5931E-4,0
TIANMU-1 22,2023-208D,2026-07-11T04:28:47.060256,15.31390829,.0002444,97.4514,308.5322,238.5288,121.5714,0,U,58663,999,14100,.1554E-3,.4632E-4,0
TIANMU-1 15,2024-004A,2026-07-11T05:09:53.458848,15.26887831,.0005796,97.4669,18.4061,245.6098,114.4536,0,U,58700,999,13944,.12335E-3,.3183E-4,0
TIANMU-1 16,2024-004B,2026-07-11T04:55:06.583584,15.26991065,.000431,97.4617,17.6147,264.6240,95.4507,0,U,58701,999,13944,.12782E-3,.3311E-4,0
TIANMU-1 17,2024-004C,2026-07-11T04:34:11.805888,15.26988605,.0003824,97.4643,18.0939,271.8789,88.2012,0,U,58702,999,13943,.12835E-3,.3325E-4,0
TIANMU-1 18,2024-004D,2026-07-11T03:59:26.598912,15.26904171,.0003498,97.4662,18.3319,244.0475,116.0404,0,U,58703,999,13943,.12189E-3,.3146E-4,0
INSAT-3DS,2024-033A,2026-07-10T10:34:21.684000,1.00271597,.00010778,0.1046,265.7903,223.3866,39.8494,0,U,58990,999,4730,0,-.146E-5,0
METEOR-M2 4,2024-039A,2026-07-11T04:04:51.769632,14.22431890,.0008231,98.7023,151.1682,98.7930,261.4180,0,U,59051,999,12267,.12162E-4,-.17E-6,0
GOES 19,2024-119A,2026-07-11T05:04:51.871008,1.00270137,.0000559,0.0154,267.1337,296.4217,86.5835,0,U,60133,999,720,0,-.241E-5,0
MTG-S1,2025-143A,2026-07-11T04:34:38.924256,1.00272782,.0003471,0.5869,344.1126,262.0795,111.1412,0,U,64723,999,365,0,0,0
METOP-SGA1,2025-172A,2026-07-11T02:23:53.532960,14.19818728,.0007282,98.6632,251.3220,344.6870,15.4085,0,U,65159,999,4718,.18982E-4,-.3E-7,0
FENGYUN 3H,2025-219A,2026-07-09T14:09:54.747936,14.19924262,.00012699,98.6772,130.9242,63.2177,296.9130,0,U,65815,999,4056,.30852092E-4,.22E-6,0
